{
 "type": "FeatureCollection",
 "features": [
  {
   "type": "Feature",
   "properties": {
    "hazard": "flood",
    "level": "moderate",
    "sourceLayer": "fixture",
    "fixture": true
   },
   "geometry": {
    "type": "Polygon",
    "coordinates": [
     [
      [
       124.9,
       11.76
      ],
      [
       124.95,
       11.76
      ],
      [
       124.95,
       11.8
      ],
      [
       124.9,
       11.8
      ],
      [
       124.9,
       11.76
      ]
     ],
     [
      [
       124.92,
       11.775
      ],
      [
       124.92,
       11.785
      ],
      [
       124.93,
       11.785
      ],
      [
       124.93,
       11.775
      ],
      [
       124.92,
       11.775
      ]
     ]
    ]
   }
  },
  {
   "type": "Feature",
   "properties": {
    "hazard": "flood",
    "level": "high",
    "sourceLayer": "fixture",
    "fixture": true
   },
   "geometry": {
    "type": "Polygon",
    "coordinates": [
     [
      [
       124.94,
       11.77
      ],
      [
       124.96,
       11.77
      ],
      [
       124.96,
       11.79
      ],
      [
       124.94,
       11.79
      ],
      [
       124.94,
       11.77
      ]
     ]
    ]
   }
  },
  {
   "type": "Feature",
   "properties": {
    "hazard": "flood",
    "level": "low",
    "sourceLayer": "fixture",
    "fixture": true
   },
   "geometry": {
    "type": "Polygon",
    "coordinates": [
     [
      [
       124.86,
       11.725
      ],
      [
       124.9,
       11.725
      ],
      [
       124.9,
       11.74
      ],
      [
       124.86,
       11.74
      ],
      [
       124.86,
       11.725
      ]
     ]
    ]
   }
  },
  {
   "type": "Feature",
   "properties": {
    "hazard": "flood",
    "level": "veryHigh",
    "sourceLayer": "fixture",
    "fixture": true
   },
   "geometry": {
    "type": "Polygon",
    "coordinates": [
     [
      [
       124.955,
       11.735
      ],
      [
       124.965,
       11.735
      ],
      [
       124.965,
       11.745
      ],
      [
       124.955,
       11.745
      ],
      [
       124.955,
       11.735
      ]
     ]
    ]
   }
  }
 ]
}
