{
 "type": "FeatureCollection",
 "features": [
  {
   "type": "Feature",
   "properties": {
    "hazard": "stormSurge",
    "level": "high",
    "sourceLayer": "fixture",
    "fixture": true
   },
   "geometry": {
    "type": "Polygon",
    "coordinates": [
     [
      [
       124.855,
       11.74
      ],
      [
       124.89,
       11.74
      ],
      [
       124.89,
       11.82
      ],
      [
       124.87,
       11.82
      ],
      [
       124.852,
       11.79
      ],
      [
       124.855,
       11.74
      ]
     ]
    ]
   }
  },
  {
   "type": "Feature",
   "properties": {
    "hazard": "stormSurge",
    "level": "moderate",
    "sourceLayer": "fixture",
    "fixture": true
   },
   "geometry": {
    "type": "Polygon",
    "coordinates": [
     [
      [
       124.89,
       11.74
      ],
      [
       124.91,
       11.74
      ],
      [
       124.91,
       11.82
      ],
      [
       124.89,
       11.82
      ],
      [
       124.89,
       11.74
      ]
     ]
    ]
   }
  },
  {
   "type": "Feature",
   "properties": {
    "hazard": "stormSurge",
    "level": "veryHigh",
    "sourceLayer": "fixture",
    "fixture": true
   },
   "geometry": {
    "type": "Polygon",
    "coordinates": [
     [
      [
       124.856,
       11.765
      ],
      [
       124.868,
       11.765
      ],
      [
       124.868,
       11.785
      ],
      [
       124.856,
       11.785
      ],
      [
       124.856,
       11.765
      ]
     ]
    ]
   }
  },
  {
   "type": "Feature",
   "properties": {
    "hazard": "stormSurge",
    "level": "low",
    "sourceLayer": "fixture",
    "fixture": true
   },
   "geometry": {
    "type": "Polygon",
    "coordinates": [
     [
      [
       124.91,
       11.74
      ],
      [
       124.915,
       11.74
      ],
      [
       124.915,
       11.82
      ],
      [
       124.91,
       11.82
      ],
      [
       124.91,
       11.74
      ]
     ]
    ]
   }
  }
 ]
}
