{
 "type": "FeatureCollection",
 "features": [
  {
   "type": "Feature",
   "properties": {
    "name": "Sample City (fixture)",
    "fixture": true
   },
   "geometry": {
    "type": "Polygon",
    "coordinates": [
     [
      [
       124.86,
       11.72
      ],
      [
       124.97,
       11.72
      ],
      [
       124.97,
       11.84
      ],
      [
       124.88,
       11.84
      ],
      [
       124.85,
       11.8
      ],
      [
       124.86,
       11.72
      ]
     ]
    ]
   }
  }
 ]
}
